NORAD_CAT_ID,OBJECT_NAME,OBJECT_TYPE,EPOCH,MEAN_MOTION,ECCENTRICITY,INCLINATION,RA_OF_ASC_NODE,ARG_OF_PERICENTER,MEAN_ANOMALY,BSTAR,MEAN_MOTION_DOT,MEAN_MOTION_DDOT,TLE_LINE0,TLE_LINE1,TLE_LINE2,SEMIMAJOR_AXIS,PERIOD,APOGEE,PERIGEE,DECAYED
53543.0,STARLINK-4297,PAYLOAD,2023-11-29 22:15:42,15.08846606,0.0001457,53.2163,193.6272,77.6052,282.5103,9.9345e-05,1.294e-05,0.0,0 STARLINK-4297,1 53543U 22101S   23333.92757565  .00001294  00000-0  99345-4 0  9996,2 53543  53.2163 193.6272 0001457  77.6052 282.5103 15.08846606 70884,6917.86,95.437,540.733,538.717,0.0
53543.0,STARLINK-4297,PAYLOAD,2023-11-30 18:55:44,15.08837109,0.0001792,53.2159,189.7638,51.9572,308.1581,0.00010146,1.327e-05,0.0,0 STARLINK-4297,1 53543U 22101S   23334.78870450  .00001327  00000-0  10146-3 0  9998,2 53543  53.2159 189.7638 0001792  51.9572 308.1581 15.08837109 71014,6917.889,95.438,540.994,538.515,0.0
53543.0,STARLINK-4297,PAYLOAD,2023-12-01 20:21:53,15.08845391,0.0001445,53.2152,185.0047,80.4397,279.6758,0.00010187,1.334e-05,0.0,0 STARLINK-4297,1 53543U 22101S   23335.84854070  .00001334  00000-0  10187-3 0  9999,2 53543  53.2152 185.0047 0001445  80.4397 279.6758 15.08845391 71860,6917.864,95.437,540.729,538.729,0.0
53543.0,STARLINK-4297,PAYLOAD,2023-12-02 20:12:41,15.08838622,0.0001692,53.2153,180.5436,73.7701,286.3477,8.4744e-05,1.061e-05,0.0,0 STARLINK-4297,1 53543U 22101S   23336.84214587  .00001061  00000-0  84744-4 0  9991,2 53543  53.2153 180.5436 0001692  73.7701 286.3477 15.08838622 71324,6917.885,95.438,540.92,538.579,0.0
53543.0,STARLINK-4297,PAYLOAD,2023-12-03 13:41:55,15.08844645,0.0001551,53.2161,177.2743,92.5683,267.5487,-0.00020333,-3.523e-05,0.0,0 STARLINK-4297,1 53543U 22101S   23337.57078501 -.00003523  00000-0 -20333-3 0  9996,2 53543  53.2161 177.2743 0001551  92.5683 267.5487 15.08844645 72122,6917.866,95.437,540.804,538.658,0.0
53543.0,STARLINK-4297,PAYLOAD,2023-12-03 23:14:14,15.08848677,0.0001501,53.2171,175.4864,103.5819,256.5341,-0.00019356,-3.368e-05,0.0,0 STARLINK-4297,1 53543U 22101S   23337.96822649 -.00003368  00000-0 -19356-3 0  9999,2 53543  53.2171 175.4864 0001501 103.5819 256.5341 15.08848677 71491,6917.854,95.437,540.757,538.68,0.0
53543.0,STARLINK-4297,PAYLOAD,2023-12-04 13:32:43,15.0883477,0.0001305,53.2172,172.8107,94.4894,265.6248,8.5443e-05,1.072e-05,0.0,0 STARLINK-4297,1 53543U 22101S   23338.56438893  .00001072  00000-0  85443-4 0  9999,2 53543  53.2172 172.8107 0001305  94.4894 265.6248 15.08834770 72279,6917.896,95.438,540.664,538.859,0.0
53543.0,STARLINK-4297,PAYLOAD,2023-12-04 16:43:29,15.08836392,0.0001288,53.2167,172.2155,88.3947,271.7193,9.6138e-05,1.242e-05,0.0,0 STARLINK-4297,1 53543U 22101S   23338.69686822  .00001242  00000-0  96138-4 0  9992,2 53543  53.2167 172.2155 0001288  88.3947 271.7193 15.08836392 71606,6917.891,95.438,540.647,538.865,0.0
53543.0,STARLINK-4297,PAYLOAD,2023-12-04 23:05:01,15.08838735,0.0001287,53.2165,171.0257,92.9914,267.1225,0.00010768,1.426e-05,0.0,0 STARLINK-4297,1 53543U 22101S   23338.96182636  .00001426  00000-0  10768-3 0  9994,2 53543  53.2165 171.0257 0001287  92.9914 267.1225 15.08838735 72337,6917.884,95.438,540.64,538.859,0.0
53543.0,STARLINK-4297,PAYLOAD,2023-12-05 22:55:51,15.08819967,0.0001463,53.2164,166.5655,98.1285,261.9873,-2.8253e-05,-7.37e-06,0.0,0 STARLINK-4297,1 53543U 22101S   23339.95545232 -.00000737  00000-0 -28253-4 0  9994,2 53543  53.2164 166.5655 0001463  98.1285 261.9873 15.08819967 71798,6917.942,95.439,540.819,538.795,0.0
53543.0,STARLINK-4297,PAYLOAD,2023-12-06 11:38:55,15.0882479,7.65e-05,53.2171,164.1855,211.0707,149.024,-3.3067e-05,-8.14e-06,0.0,0 STARLINK-4297,1 53543U 22101S   23340.48536701 -.00000814  00000-0 -33067-4 0  9990,2 53543  53.2171 164.1855 0000765 211.0707 149.0240 15.08824790 72561,6917.927,95.439,540.321,539.263,0.0
53543.0,STARLINK-4297,PAYLOAD,2023-12-06 21:11:13,15.08841199,0.0001147,53.2159,162.4039,89.7437,270.3686,5.9482e-05,6.59e-06,0.0,0 STARLINK-4297,1 53543U 22101S   23340.88280006  .00000659  00000-0  59482-4 0  9992,2 53543  53.2159 162.4039 0001147  89.7437 270.3686 15.08841199 71931,6917.877,95.437,540.535,538.948,0.0
53543.0,STARLINK-4297,PAYLOAD,2023-12-08 11:20:28,15.08849081,0.0001278,53.2153,155.2648,100.7752,259.3384,7.3701e-05,8.86e-06,0.0,0 STARLINK-4297,1 53543U 22101S   23342.47255198  .00000886  00000-0  73701-4 0  9995,2 53543  53.2153 155.2648 0001278 100.7752 259.3384 15.08849081 72177,6917.853,95.437,540.602,538.834,0.0
53543.0,STARLINK-4297,PAYLOAD,2023-12-08 14:31:14,15.08850311,0.0001204,53.2161,154.6704,103.5258,256.5869,6.3305e-05,7.2e-06,0.0,0 STARLINK-4297,1 53543U 22101S   23342.60503044  .00000720  00000-0  63305-4 0  9992,2 53543  53.2161 154.6704 0001204 103.5258 256.5869 15.08850311 72886,6917.849,95.437,540.547,538.881,0.0
53543.0,STARLINK-4297,PAYLOAD,2023-12-09 11:11:15,15.08846432,0.0001038,53.217,150.8058,93.5849,266.5262,8.1291e-05,1.006e-05,0.0,0 STARLINK-4297,1 53543U 22101S   23343.46614789  .00001006  00000-0  81291-4 0  9998,2 53543  53.2170 150.8058 0001038  93.5849 266.5262 15.08846432 73018,6917.861,95.437,540.444,539.008,0.0
53543.0,STARLINK-4297,PAYLOAD,2023-12-09 14:22:01,15.08849533,0.0001239,53.2163,150.2106,90.3082,269.8052,3.6262e-05,2.89e-06,0.0,0 STARLINK-4297,1 53543U 22101S   23343.59862584  .00000289  00000-0  36262-4 0  9990,2 53543  53.2163 150.2106 0001239  90.3082 269.8052 15.08849533 72348,6917.851,95.437,540.573,538.859,0.0
53543.0,STARLINK-4297,PAYLOAD,2023-12-10 11:02:02,15.08842631,0.0001518,53.216,146.3433,100.0882,260.0281,-4.6426e-06,-3.62e-06,0.0,0 STARLINK-4297,1 53543U 22101S   23344.45974779 -.00000362  00000-0 -46426-5 0  9994,2 53543  53.2160 146.3433 0001518 100.0882 260.0281 15.08842631 72474,6917.872,95.437,540.787,538.687,0.0
53543.0,STARLINK-4297,PAYLOAD,2023-12-10 14:12:48,15.08841948,0.0001701,53.2158,145.747,112.807,247.3101,-1.4437e-05,-5.18e-06,0.0,0 STARLINK-4297,1 53543U 22101S   23344.59222751 -.00000518  00000-0 -14437-4 0  9994,2 53543  53.2158 145.7470 0001701 112.8070 247.3101 15.08841948 73187,6917.874,95.437,540.916,538.563,0.0
53543.0,STARLINK-4297,PAYLOAD,2023-12-10 17:23:34,15.08839628,0.0001223,53.2166,145.1558,85.0239,275.0893,-3.7172e-05,-8.79e-06,0.0,0 STARLINK-4297,1 53543U 22101S   23344.72471026 -.00000879  00000-0 -37172-4 0  9991,2 53543  53.2166 145.1558 0001223  85.0239 275.0893 15.08839628 73205,6917.882,95.438,540.593,538.9,0.0
53543.0,STARLINK-4297,PAYLOAD,2023-12-11 14:03:35,15.08841108,0.0001187,53.217,141.2897,92.2999,267.8129,3.5831e-05,2.82e-06,0.0,0 STARLINK-4297,1 53543U 22101S   23345.58582549  .00000282  00000-0  35831-4 0  9995,2 53543  53.2170 141.2897 0001187  92.2999 267.8129 15.08841108 73336,6917.877,95.437,540.563,538.921,0.0
53543.0,STARLINK-4297,PAYLOAD,2023-12-11 15:38:58,15.08841696,0.0001197,53.217,140.9925,88.9918,271.1211,4.0116e-05,3.51e-06,0.0,0 STARLINK-4297,1 53543U 22101S   23345.65206509  .00000351  00000-0  40116-4 0  9991,2 53543  53.2170 140.9925 0001197  88.9918 271.1211 15.08841696 72654,6917.875,95.437,540.568,538.912,0.0
53543.0,STARLINK-4297,PAYLOAD,2023-12-12 13:54:22,15.08839957,0.0001167,53.217,136.8282,80.0575,280.0548,7.0102e-05,8.28e-06,0.0,0 STARLINK-4297,1 53543U 22101S   23346.57942523  .00000828  00000-0  70102-4 0  9993,2 53543  53.2170 136.8282 0001167  80.0575 280.0548 15.08839957 73484,6917.881,95.438,540.553,538.938,0.0
53543.0,STARLINK-4297,PAYLOAD,2023-12-12 17:05:08,15.08841085,0.0001184,53.2171,136.2336,83.8566,276.2561,7.9509e-05,9.78e-06,0.0,0 STARLINK-4297,1 53543U 22101S   23346.71190422  .00000978  00000-0  79509-4 0  9998,2 53543  53.2171 136.2336 0001184  83.8566 276.2561 15.08841085 72812,6917.877,95.437,540.561,538.923,0.0
53543.0,STARLINK-4297,PAYLOAD,2023-12-13 13:45:09,15.0883914,0.0001272,53.2175,132.3684,93.9552,266.1585,1.8803e-05,1.1e-07,0.0,0 STARLINK-4297,1 53543U 22101S   23347.57302719  .00000011  00000-0  18803-4 0  9995,2 53543  53.2175 132.3684 0001272  93.9552 266.1585 15.08839140 73638,6917.883,95.438,540.628,538.868,0.0
53543.0,STARLINK-4297,PAYLOAD,2023-12-13 15:20:32,15.08839512,0.000127,53.2176,132.0712,93.3792,266.7345,2.1412e-05,5.3e-07,0.0,0 STARLINK-4297,1 53543U 22101S   23347.63926688  .00000053  00000-0  21412-4 0  9995,2 53543  53.2176 132.0712 0001270  93.3792 266.7345 15.08839512 73640,6917.882,95.438,540.625,538.868,0.0
53543.0,STARLINK-4297,PAYLOAD,2023-12-14 13:35:56,15.08837339,0.0001291,53.2178,127.9091,95.4533,264.6607,1.2995e-05,-8.1e-07,0.0,0 STARLINK-4297,1 53543U 22101S   23348.56662958 -.00000081  00000-0  12995-4 0  9993,2 53543  53.2178 127.9091 0001291  95.4533 264.6607 15.08837339 73782,6917.889,95.438,540.647,538.86,0.0
53543.0,STARLINK-4297,PAYLOAD,2023-12-14 16:46:42,15.08840189,0.0001258,53.2176,127.3135,83.1364,276.9771,3.1491e-05,2.13e-06,0.0,0 STARLINK-4297,1 53543U 22101S   23348.69910775  .00000213  00000-0  31491-4 0  9998,2 53543  53.2176 127.3135 0001258  83.1364 276.9771 15.08840189 73114,6917.88,95.438,540.615,538.875,0.0
53543.0,STARLINK-4297,PAYLOAD,2023-12-15 13:26:44,15.08831363,0.0001339,53.2174,123.4495,63.6036,296.5094,7.8421e-06,-1.63e-06,0.0,0 STARLINK-4297,1 53543U 22101S   23349.56023766 -.00000163  00000-0  78421-5 0  9990,2 53543  53.2174 123.4495 0001339  63.6036 296.5094 15.08831363 73937,6917.907,95.438,540.698,538.845,0.0
53543.0,STARLINK-4297,PAYLOAD,2023-12-15 16:37:31,15.08809698,0.000157,53.2181,122.8532,65.1057,295.0099,0.00035064,5.292e-05,0.0,0 STARLINK-4297,1 53543U 22101S   23349.69272031  .00005292  00000-0  35064-3 0  9996,2 53543  53.2181 122.8532 0001570  65.1057 295.0099 15.08809698 73268,6917.973,95.439,540.924,538.752,0.0
53543.0,STARLINK-4297,PAYLOAD,2023-12-16 13:17:31,15.08841437,0.0001636,53.2185,118.9867,60.6659,299.4496,8.7822e-05,1.11e-05,0.0,0 STARLINK-4297,1 53543U 22101S   23350.55383198  .00001110  00000-0  87822-4 0  9995,2 53543  53.2185 118.9867 0001636  60.6659 299.4496 15.08841437 74087,6917.876,95.437,540.873,538.609,0.0
